CCSDS_OMM_VERS,COMMENT,CREATION_DATE,ORIGINATOR,OBJECT_NAME,OBJECT_ID,CENTER_NAME,REF_FRAME,TIME_SYSTEM,MEAN_ELEMENT_THEORY,EPOCH,MEAN_MOTION,ECCENTRICITY,INCLINATION,RA_OF_ASC_NODE,ARG_OF_PERICENTER,MEAN_ANOMALY,EPHEMERIS_TYPE,CLASSIFICATION_TYPE,NORAD_CAT_ID,ELEMENT_SET_NO,REV_AT_EPOCH,BSTAR,MEAN_MOTION_DOT,MEAN_MOTION_DDOT,SEMIMAJOR_AXIS,PERIOD,APOAPSIS,PERIAPSIS,OBJECT_TYPE,RCS_SIZE,COUNTRY_CODE,LAUNCH_DATE,SITE,DECAY_DATE,FILE,GP_ID,TLE_LINE0,TLE_LINE1,TLE_LINE2,norad_id
3.0,GENERATED VIA SPACE-TRACK.ORG API,2026-05-14T10:30:29,18 SPCS,BEIDOU 3 IGSO-1,2019-023A,EARTH,TEME,UTC,SGP4,2026-05-12 18:25:31.496160+00:00,1.00250503,0.00238565,58.6468,38.0171,234.3090,349.8662,0,U,44204,999,685,0.00000000000000,-0.00000227,0.0000000000000,42170.699,1436.402,35893.168,35691.960,PAYLOAD,LARGE,PRC,2019-04-20,XSC,,5196435,323339289,0 BEIDOU 3 IGSO-1,1 44204U 19023A   26132.76772565 -.00000227  00000-0  00000-0 0  9990,2 44204  58.6468  38.0171 0023856 234.3090 349.8662  1.00250503  6851,44204
3.0,GENERATED VIA SPACE-TRACK.ORG API,2026-05-27T02:28:57,18 SPCS,BEIDOU 3 IGSO-1,2019-023A,EARTH,TEME,UTC,SGP4,2026-05-21 14:49:38.550720+00:00,1.00299087,0.00255460,58.6591,37.9235,227.4594,312.4431,0,U,44204,999,694,0.00000000000000,-0.00000234,0.0000000000000,42157.080,1435.706,35886.639,35671.250,PAYLOAD,LARGE,PRC,2019-04-20,XSC,,5214677,325069247,0 BEIDOU 3 IGSO-1,1 44204U 19023A   26141.61780730 -.00000234  00000-0  00000-0 0  9995,2 44204  58.6591  37.9235 0025546 227.4594 312.4431  1.00299087  6947,44204
3.0,GENERATED VIA SPACE-TRACK.ORG API,2026-06-04T22:26:23,18 SPCS,BEIDOU 3 IGSO-1,2019-023A,EARTH,TEME,UTC,SGP4,2026-06-04 14:06:37.445760+00:00,1.00295778,0.00254710,58.6768,37.7810,225.7549,318.3782,0,U,44204,999,708,0.00000000000000,-0.00000211,0.0000000000000,42158.007,1435.753,35887.253,35672.492,PAYLOAD,LARGE,PRC,2019-04-20,XSC,,5230101,327122348,0 BEIDOU 3 IGSO-1,1 44204U 19023A   26155.58793340 -.00000211  00000-0  00000+0 0  9991,2 44204  58.6768  37.7810 0025471 225.7549 318.3782  1.00295778  7081,44204
3.0,GENERATED VIA SPACE-TRACK.ORG API,2026-06-05T02:58:45,18 SPCS,BEIDOU 3 IGSO-1,2019-023A,EARTH,TEME,UTC,SGP4,2026-06-04 14:06:37.446624+00:00,1.00295778,0.00254705,58.6768,37.7810,225.7549,318.3782,0,U,44204,999,708,0.00000000000000,-0.00000211,0.0000000000000,42158.007,1435.753,35887.251,35672.494,PAYLOAD,LARGE,PRC,2019-04-20,XSC,,5230353,327159944,0 BEIDOU 3 IGSO-1,1 44204U 19023A   26155.58793341 -.00000211  00000-0  00000-0 0  9993,2 44204  58.6768  37.7810 0025471 225.7549 318.3782  1.00295778  7081,44204
3.0,GENERATED VIA SPACE-TRACK.ORG API,2026-06-07T03:17:11,18 SPCS,BEIDOU 3 IGSO-1,2019-023A,EARTH,TEME,UTC,SGP4,2026-06-06 22:54:10.040832+00:00,1.00294902,0.00254187,58.6799,37.7569,225.7371,92.8010,0,U,44204,999,710,0.00000000000000,-0.00000215,0.0000000000000,42158.253,1435.766,35887.278,35672.957,PAYLOAD,LARGE,PRC,2019-04-20,XSC,,5234182,327690760,0 BEIDOU 3 IGSO-1,1 44204U 19023A   26157.95428288 -.00000215  00000-0  00000-0 0  9995,2 44204  58.6799  37.7569 0025419 225.7371  92.8010  1.00294902  7100,44204
3.0,GENERATED VIA SPACE-TRACK.ORG API,2026-06-16T17:35:04,18 SPCS,BEIDOU 3 IGSO-1,2019-023A,EARTH,TEME,UTC,SGP4,2026-06-16 14:11:00.247776+00:00,1.00291370,0.00254580,58.6939,37.6556,225.7166,332.2073,0,U,44204,999,720,0.00000000000000,-0.00000221,0.0000000000000,42159.243,1435.816,35888.437,35673.778,PAYLOAD,LARGE,PRC,2019-04-20,XSC,,5250820,330003097,0 BEIDOU 3 IGSO-1,1 44204U 19023A   26167.59097509 -.00000221  00000-0  00000-0 0  9991,2 44204  58.6939  37.6556 0025458 225.7166 332.2073  1.00291370  7203,44204
3.0,GENERATED VIA SPACE-TRACK.ORG API,2026-06-17T17:43:15,18 SPCS,BEIDOU 3 IGSO-1,2019-023A,EARTH,TEME,UTC,SGP4,2026-06-17 15:14:19.749120+00:00,1.00291189,0.00254969,58.6955,37.6444,225.8169,349.0348,0,U,44204,999,721,0.00000000000000,-0.00000222,0.0000000000000,42159.293,1435.819,35888.651,35673.665,PAYLOAD,LARGE,PRC,2019-04-20,XSC,,5252865,330230205,0 BEIDOU 3 IGSO-1,1 44204U 19023A   26168.63495080 -.00000222  00000-0  00000-0 0  9994,2 44204  58.6955  37.6444 0025497 225.8169 349.0348  1.00291189  7214,44204
3.0,GENERATED VIA SPACE-TRACK.ORG API,2026-06-18T11:14:27,18 SPCS,BEIDOU 3 IGSO-1,2019-023A,EARTH,TEME,UTC,SGP4,2026-06-18 00:46:38.565984+00:00,1.00291130,0.00255164,58.6960,37.6402,225.7659,132.5812,0,U,44204,999,721,0.00000000000000,-0.00000223,0.0000000000000,42159.310,1435.820,35888.750,35673.600,PAYLOAD,LARGE,PRC,2019-04-20,XSC,,5253499,330353495,0 BEIDOU 3 IGSO-1,1 44204U 19023A   26169.03239081 -.00000223  00000-0  00000-0 0  9997,2 44204  58.6960  37.6402 0025516 225.7659 132.5812  1.00291130  7216,44204
3.0,GENERATED VIA SPACE-TRACK.ORG API,2026-06-18T17:45:15,18 SPCS,BEIDOU 3 IGSO-1,2019-023A,EARTH,TEME,UTC,SGP4,2026-06-18 14:37:15.269664+00:00,1.00291017,0.00255444,58.6970,37.6341,225.7171,340.8879,0,U,44204,999,722,0.00000000000000,-0.00000224,0.0000000000000,42159.341,1435.822,35888.900,35673.513,PAYLOAD,LARGE,PRC,2019-04-20,XSC,,5253513,330389069,0 BEIDOU 3 IGSO-1,1 44204U 19023A   26169.60920451 -.00000224  00000-0  00000-0 0  9999,2 44204  58.6970  37.6341 0025544 225.7171 340.8879  1.00291017  7221,44204
3.0,GENERATED VIA SPACE-TRACK.ORG API,2026-06-19T17:59:21,18 SPCS,BEIDOU 3 IGSO-1,2019-023A,EARTH,TEME,UTC,SGP4,2026-06-19 15:08:57.350112+00:00,1.00290861,0.00255776,58.6985,37.6233,225.7008,349.9014,0,U,44204,999,723,0.00000000000000,-0.00000227,0.0000000000000,42159.385,1435.824,35889.084,35673.416,PAYLOAD,LARGE,PRC,2019-04-20,XSC,,5255921,330723548,0 BEIDOU 3 IGSO-1,1 44204U 19023A   26170.63121933 -.00000227  00000-0  00000-0 0  9995,2 44204  58.6985  37.6233 0025578 225.7008 349.9014  1.00290861  7231,44204
3.0,GENERATED VIA SPACE-TRACK.ORG API,2026-06-20T10:42:50,18 SPCS,BEIDOU 3 IGSO-1,2019-023A,EARTH,TEME,UTC,SGP4,2026-06-20 00:32:38.719968+00:00,1.00290789,0.00255895,58.6991,37.6192,225.6061,131.3285,0,U,44204,999,723,0.00000000000000,-0.00000228,0.0000000000000,42159.405,1435.825,35889.154,35673.387,PAYLOAD,LARGE,PRC,2019-04-20,XSC,,5256487,330836400,0 BEIDOU 3 IGSO-1,1 44204U 19023A   26171.02267037 -.00000228  00000-0  00000-0 0  9996,2 44204  58.6991  37.6192 0025589 225.6061 131.3285  1.00290789  7234,44204
3.0,GENERATED VIA SPACE-TRACK.ORG API,2026-06-23T03:40:42,18 SPCS,BEIDOU 3 IGSO-1,2019-023A,EARTH,TEME,UTC,SGP4,2026-06-20 13:09:30.279168+00:00,1.00290704,0.00256163,58.6998,37.6136,225.5297,321.1703,0,U,44204,999,724,0.00000000000000,-0.00000229,0.0000000000000,42159.429,1435.826,35889.291,35673.297,PAYLOAD,LARGE,PRC,2019-04-20,XSC,,5257616,330962619,0 BEIDOU 3 IGSO-1,1 44204U 19023A   26171.54826712 -.00000229  00000-0  00000-0 0  9995,2 44204  58.6998  37.6136 0025616 225.5297 321.1703  1.00290704  7242,44204
3.0,GENERATED VIA SPACE-TRACK.ORG API,2026-06-24T02:28:56,18 SPCS,BEIDOU 3 IGSO-1,2019-023A,EARTH,TEME,UTC,SGP4,2026-06-22 22:46:36.425280+00:00,1.00290263,0.00256968,58.7032,37.5887,225.1834,108.3057,0,U,44204,999,726,0.00000000000000,-0.00000231,0.0000000000000,42159.553,1435.832,35889.754,35673.081,PAYLOAD,LARGE,PRC,2019-04-20,XSC,,5257684,331031811,0 BEIDOU 3 IGSO-1,1 44204U 19023A   26173.94903270 -.00000231  00000-0  00000-0 0  9999,2 44204  58.7032  37.5887 0025697 225.1834 108.3057  1.00290263  7265,44204
3.0,GENERATED VIA SPACE-TRACK.ORG API,2026-05-16T10:38:26,18 SPCS,NAVSTAR 83 (USA 440),2024-242A,EARTH,TEME,UTC,SGP4,2026-05-16 04:14:44.028672+00:00,2.00570749,0.00171439,54.8632,335.4791,3.2214,171.9079,0,U,62339,999,1061,0.00000000000000,-0.00000064,0.0000000000000,26559.717,717.951,20227.116,20136.048,PAYLOAD,LARGE,US,2024-12-17,AFETR,,5196540,323450697,0 NAVSTAR 83 (USA 440),1 62339U 24242A   26136.17689848 -.00000064  00000-0  00000-0 0  9997,2 62339  54.8632 335.4791 0017144   3.2214 171.9079  2.00570749 10610,62339
3.0,GENERATED VIA SPACE-TRACK.ORG API,2026-05-16T23:56:34,18 SPCS,NAVSTAR 83 (USA 440),2024-242A,EARTH,TEME,UTC,SGP4,2026-05-16 10:03:06.257088+00:00,2.00570725,0.00171360,54.8633,335.4693,3.3978,346.4178,0,U,62339,999,1061,0.00000000000000,-0.00000065,0.0000000000000,26559.719,717.951,20227.097,20136.071,PAYLOAD,LARGE,US,2024-12-17,AFETR,,5197900,323523530,0 NAVSTAR 83 (USA 440),1 62339U 24242A   26136.41882242 -.00000065  00000-0  00000+0 0  9997,2 62339  54.8633 335.4693 0017136   3.3978 346.4178  2.00570725 10614,62339
3.0,GENERATED VIA SPACE-TRACK.ORG API,2026-05-17T03:32:26,18 SPCS,NAVSTAR 83 (USA 440),2024-242A,EARTH,TEME,UTC,SGP4,2026-05-16 10:03:06.257952+00:00,2.00570725,0.00171357,54.8633,335.4693,3.3978,346.4178,0,U,62339,999,1061,0.00000000000000,-0.00000065,0.0000000000000,26559.719,717.951,20227.096,20136.072,PAYLOAD,LARGE,US,2024-12-17,AFETR,,5197925,323550519,0 NAVSTAR 83 (USA 440),1 62339U 24242A   26136.41882243 -.00000065  00000-0  00000-0 0  9999,2 62339  54.8633 335.4693 0017136   3.3978 346.4178  2.00570725 10614,62339
3.0,GENERATED VIA SPACE-TRACK.ORG API,2026-05-18T15:16:53,18 SPCS,NAVSTAR 83 (USA 440),2024-242A,EARTH,TEME,UTC,SGP4,2026-05-18 04:20:52.342368+00:00,2.00570733,0.00171840,54.8626,335.3975,3.5056,178.8516,0,U,62339,999,1065,0.00000000000000,-0.00000073,0.0000000000000,26559.718,717.951,20227.224,20135.943,PAYLOAD,LARGE,US,2024-12-17,AFETR,,5202274,323727453,0 NAVSTAR 83 (USA 440),1 62339U 24242A   26138.18116137 -.00000073  00000-0  00000+0 0  9995,2 62339  54.8626 335.3975 0017184   3.5056 178.8516  2.00570733 10656,62339
3.0,GENERATED VIA SPACE-TRACK.ORG API,2026-05-18T23:46:21,18 SPCS,NAVSTAR 83 (USA 440),2024-242A,EARTH,TEME,UTC,SGP4,2026-05-18 16:13:40.243872+00:00,2.00570743,0.00172230,54.8623,335.3773,3.5093,176.2743,0,U,62339,999,1066,0.00000000000000,-0.00000075,0.0000000000000,26559.718,717.951,20227.326,20135.839,PAYLOAD,LARGE,US,2024-12-17,AFETR,,5202979,323743202,0 NAVSTAR 83 (USA 440),1 62339U 24242A   26138.67616023 -.00000075  00000-0  00000+0 0  9990,2 62339  54.8623 335.3773 0017223   3.5093 176.2743  2.00570743 10660,62339
